[{"OBJECT_NAME":"STARLINK-34850","OBJECT_ID":"2025-195C","EPOCH":"2026-03-09T17:08:09.142080","MEAN_MOTION":15.30232482,"ECCENTRICITY":0.00010484,"INCLINATION":53.1596,"RA_OF_ASC_NODE":258.3347,"ARG_OF_PERICENTER":68.169,"MEAN_ANOMALY":291.9422,"EPHEMERIS_TYPE":0,"CLASSIFICATION_TYPE":"U","NORAD_CAT_ID":65460,"ELEMENT_SET_NO":999,"REV_AT_EPOCH":2999,"BSTAR":0.0009431071,"MEAN_MOTION_DOT":0.00027705,"MEAN_MOTION_DDOT":0},{"OBJECT_NAME":"NOAA 17 DEB","OBJECT_ID":"2002-032DK","EPOCH":"2026-03-06T06:53:22.349472","MEAN_MOTION":15.29547844,"ECCENTRICITY":0.00135803,"INCLINATION":98.6735,"RA_OF_ASC_NODE":77.6727,"ARG_OF_PERICENTER":131.2945,"MEAN_ANOMALY":228.9463,"EPHEMERIS_TYPE":0,"CLASSIFICATION_TYPE":"U","NORAD_CAT_ID":49481,"ELEMENT_SET_NO":999,"REV_AT_EPOCH":24998,"BSTAR":0.011623019,"MEAN_MOTION_DOT":0.00349096,"MEAN_MOTION_DDOT":0}]
